start=new Date('2022-01-12T00:00:00.000Z').valueOf();
sats=[{"REF_FRAME":"TEME","ECCENTRICITY":"0.00020910","COUNTRY_CODE":"US","MEAN_MOTION_DOT":"-0.00001542","GP_ID":"193692355","INCLINATION":"53.0515","ARG_OF_PERICENTER":"95.1759","MEAN_ELEMENT_THEORY":"SGP4","RA_OF_ASC_NODE":"150.6485","APOAPSIS":"548.648","MEAN_MOTION":"15.06404442","TIME_SYSTEM":"UTC","OBJECT_NAME":"STARLINK-1648","PERIAPSIS":"545.752","SEMIMAJOR_AXIS":"6925.335","PERIOD":"95.592","REV_AT_EPOCH":"7072","NORAD_CAT_ID":"46533","EPHEMERIS_TYPE":"0","RCS_SIZE":"LARGE","TLE_LINE1":"1 46533U 20070B   22011.81026850 -.00001542  00000-0 -84586-4 0  9995","MEAN_MOTION_DDOT":"0.0000000000000","DECAY_DATE":null,"OBJECT_TYPE":"PAYLOAD","OBJECT_ID":"2020-070B","FILE":"3269987","MEAN_ANOMALY":"264.9469","ELEMENT_SET_NO":"999","CLASSIFICATION_TYPE":"U","CENTER_NAME":"EARTH","SITE":"AFETR","TLE_LINE2":"2 46533  53.0515 150.6485 0002091  95.1759 264.9469 15.06404442 70725","BSTAR":"-0.00008458600000","EPOCH":"2022-01-11T19:26:47.198400","LAUNCH_DATE":"2020-10-06"},{"OBJECT_TYPE":"PAYLOAD","OBJECT_ID":"2020-070C","FILE":"3269987","PERIOD":"95.592","REV_AT_EPOCH":"7073","NORAD_CAT_ID":"46534","EPHEMERIS_TYPE":"0","RCS_SIZE":"LARGE","TLE_LINE1":"1 46534U 20070C   22011.85818440 -.00000398  00000-0 -77842-5 0  9990","DECAY_DATE":null,"MEAN_MOTION_DDOT":"0.0000000000000","TLE_LINE2":"2 46534  53.0550 150.4234 0001740  92.1642 267.9546 15.06398841 70738","BSTAR":"-0.00000778420000","EPOCH":"2022-01-11T20:35:47.132160","LAUNCH_DATE":"2020-10-06","MEAN_ANOMALY":"267.9546","CLASSIFICATION_TYPE":"U","ELEMENT_SET_NO":"999","SITE":"AFETR","CENTER_NAME":"EARTH","GP_ID":"193692100","INCLINATION":"53.0550","ARG_OF_PERICENTER":"92.1642","MEAN_ELEMENT_THEORY":"SGP4","REF_FRAME":"TEME","ECCENTRICITY":"0.00017400","COUNTRY_CODE":"US","MEAN_MOTION_DOT":"-0.00000398","TIME_SYSTEM":"UTC","PERIAPSIS":"546.012","OBJECT_NAME":"STARLINK-1659","SEMIMAJOR_AXIS":"6925.352","APOAPSIS":"548.422","MEAN_MOTION":"15.06398841","RA_OF_ASC_NODE":"150.4234"},{"REF_FRAME":"TEME","ECCENTRICITY":"0.00019960","COUNTRY_CODE":"US","MEAN_MOTION_DOT":"0.00000250","GP_ID":"193693356","INCLINATION":"53.0540","MEAN_ELEMENT_THEORY":"SGP4","ARG_OF_PERICENTER":"92.7301","APOAPSIS":"548.568","MEAN_MOTION":"15.06408925","RA_OF_ASC_NODE":"151.3772","TIME_SYSTEM":"UTC","PERIAPSIS":"545.804","OBJECT_NAME":"STARLINK-1663","SEMIMAJOR_AXIS":"6925.321","PERIOD":"95.592","EPHEMERIS_TYPE":"0","REV_AT_EPOCH":"7069","NORAD_CAT_ID":"46535","DECAY_DATE":null,"MEAN_MOTION_DDOT":"0.0000000000000","TLE_LINE1":"1 46535U 20070D   22011.64807476  .00000250  00000-0  35707-4 0  9993","RCS_SIZE":"LARGE","OBJECT_ID":"2020-070D","OBJECT_TYPE":"PAYLOAD","FILE":"3269987","ELEMENT_SET_NO":"999","CLASSIFICATION_TYPE":"U","MEAN_ANOMALY":"267.3917","SITE":"AFETR","CENTER_NAME":"EARTH","BSTAR":"0.00003570700000","TLE_LINE2":"2 46535  53.0540 151.3772 0001996  92.7301 267.3917 15.06408925 70692","EPOCH":"2022-01-11T15:33:13.659264","LAUNCH_DATE":"2020-10-06"},{"PERIOD":"90.969","EPHEMERIS_TYPE":"0","REV_AT_EPOCH":"7154","NORAD_CAT_ID":"46536","MEAN_MOTION_DDOT":"0.0000000000000","DECAY_DATE":null,"RCS_SIZE":"LARGE","TLE_LINE1":"1 46536U 20070E   22011.44942870  .00093302  00000-0  42341-3 0  9991","OBJECT_ID":"2020-070E","OBJECT_TYPE":"PAYLOAD","FILE":"3269657","CLASSIFICATION_TYPE":"U","ELEMENT_SET_NO":"999","MEAN_ANOMALY":"6.7011","SITE":"AFETR","CENTER_NAME":"EARTH","BSTAR":"0.00042341000000","TLE_LINE2":"2 46536  53.0516  90.0114 0016523 353.3790   6.7011 15.82964397 71544","EPOCH":"2022-01-11T10:47:10.639680","LAUNCH_DATE":"2020-10-06","REF_FRAME":"TEME","ECCENTRICITY":"0.00165230","COUNTRY_CODE":"US","MEAN_MOTION_DOT":"0.00093302","GP_ID":"193661802","INCLINATION":"53.0516","MEAN_ELEMENT_THEORY":"SGP4","ARG_OF_PERICENTER":"353.3790","APOAPSIS":"333.135","RA_OF_ASC_NODE":"90.0114","MEAN_MOTION":"15.82964397","TIME_SYSTEM":"UTC","PERIAPSIS":"310.994","OBJECT_NAME":"STARLINK-1668","SEMIMAJOR_AXIS":"6700.200"},{"COUNTRY_CODE":"US","MEAN_MOTION_DOT":"-0.00000548","ECCENTRICITY":"0.00021630","REF_FRAME":"TEME","MEAN_ELEMENT_THEORY":"SGP4","ARG_OF_PERICENTER":"94.8489","INCLINATION":"53.0530","GP_ID":"193691856","MEAN_MOTION":"15.06390596","APOAPSIS":"548.740","RA_OF_ASC_NODE":"151.2589","SEMIMAJOR_AXIS":"6925.377","PERIAPSIS":"545.744","OBJECT_NAME":"STARLINK-1672","TIME_SYSTEM":"UTC","DECAY_DATE":null,"MEAN_MOTION_DDOT":"0.0000000000000","TLE_LINE1":"1 46537U 20070F   22011.67388804 -.00000548  00000-0 -17857-4 0  9995","RCS_SIZE":"LARGE","EPHEMERIS_TYPE":"0","NORAD_CAT_ID":"46537","REV_AT_EPOCH":"7070","PERIOD":"95.593","FILE":"3269987","OBJECT_ID":"2020-070F","OBJECT_TYPE":"PAYLOAD","SITE":"AFETR","CENTER_NAME":"EARTH","CLASSIFICATION_TYPE":"U","ELEMENT_SET_NO":"999","MEAN_ANOMALY":"265.2747","LAUNCH_DATE":"2020-10-06","EPOCH":"2022-01-11T16:10:23.926656","BSTAR":"-0.00001785700000","TLE_LINE2":"2 46537  53.0530 151.2589 0002163  94.8489 265.2747 15.06390596 70709"},{"TIME_SYSTEM":"UTC","PERIAPSIS":"545.901","OBJECT_NAME":"STARLINK-1678","SEMIMAJOR_AXIS":"6925.339","APOAPSIS":"548.508","RA_OF_ASC_NODE":"151.3571","MEAN_MOTION":"15.06403007","GP_ID":"193692600","INCLINATION":"53.0537","ARG_OF_PERICENTER":"89.7177","MEAN_ELEMENT_THEORY":"SGP4","REF_FRAME":"TEME","ECCENTRICITY":"0.00018820","MEAN_MOTION_DOT":"-0.00000662","COUNTRY_CODE":"US","TLE_LINE2":"2 46538  53.0537 151.3571 0001882  89.7177 270.4028 15.06403007 70693","BSTAR":"-0.00002556500000","EPOCH":"2022-01-11T15:38:32.609184","LAUNCH_DATE":"2020-10-06","MEAN_ANOMALY":"270.4028","ELEMENT_SET_NO":"999","CLASSIFICATION_TYPE":"U","CENTER_NAME":"EARTH","SITE":"AFETR","OBJECT_TYPE":"PAYLOAD","OBJECT_ID":"2020-070G","FILE":"3269987","PERIOD":"95.592","REV_AT_EPOCH":"7069","NORAD_CAT_ID":"46538","EPHEMERIS_TYPE":"0","RCS_SIZE":"LARGE","TLE_LINE1":"1 46538U 20070G   22011.65176631 -.00000662  00000-0 -25565-4 0  9999","MEAN_MOTION_DDOT":"0.0000000000000","DECAY_DATE":null},{"TLE_LINE1":"1 46539U 20070H   22011.40725444  .00586996  00000-0  99204-2 0  9991","RCS_SIZE":"LARGE","DECAY_DATE":null,"MEAN_MOTION_DDOT":"0.0000000000000","PERIOD":"92.968","REV_AT_EPOCH":"7076","NORAD_CAT_ID":"46539","EPHEMERIS_TYPE":"0","OBJECT_TYPE":"PAYLOAD","OBJECT_ID":"2020-070H","FILE":"3269657","MEAN_ANOMALY":"320.4846","CLASSIFICATION_TYPE":"U","ELEMENT_SET_NO":"999","SITE":"AFETR","CENTER_NAME":"EARTH","EPOCH":"2022-01-11T09:46:26.783616","LAUNCH_DATE":"2020-10-06","TLE_LINE2":"2 46539  53.0473 145.7217 0001602  39.6278 320.4846 15.48928130 70760","BSTAR":"0.00992040000000","COUNTRY_CODE":"US","MEAN_MOTION_DOT":"0.00586996","REF_FRAME":"TEME","ECCENTRICITY":"0.00016020","INCLINATION":"53.0473","ARG_OF_PERICENTER":"39.6278","MEAN_ELEMENT_THEORY":"SGP4","GP_ID":"193663054","MEAN_MOTION":"15.48928130","APOAPSIS":"420.951","RA_OF_ASC_NODE":"145.7217","SEMIMAJOR_AXIS":"6797.997","TIME_SYSTEM":"UTC","PERIAPSIS":"418.773","OBJECT_NAME":"STARLINK-1684"},{"OBJECT_ID":"2020-070K","OBJECT_TYPE":"PAYLOAD","FILE":"3269987","PERIOD":"95.592","EPHEMERIS_TYPE":"0","NORAD_CAT_ID":"46541","REV_AT_EPOCH":"7097","DECAY_DATE":null,"MEAN_MOTION_DDOT":"0.0000000000000","RCS_SIZE":"LARGE","TLE_LINE1":"1 46541U 20070K   22011.63149348  .00000228  00000-0  34196-4 0  9992","BSTAR":"0.00003419600000","TLE_LINE2":"2 46541  53.0561 131.4374 0001731 102.7112 257.4070 15.06400722 70976","EPOCH":"2022-01-11T15:09:21.036672","LAUNCH_DATE":"2020-10-06","ELEMENT_SET_NO":"999","CLASSIFICATION_TYPE":"U","MEAN_ANOMALY":"257.4070","SITE":"AFETR","CENTER_NAME":"EARTH","GP_ID":"193693101","INCLINATION":"53.0561","MEAN_ELEMENT_THEORY":"SGP4","ARG_OF_PERICENTER":"102.7112","REF_FRAME":"TEME","ECCENTRICITY":"0.00017310","COUNTRY_CODE":"US","MEAN_MOTION_DOT":"0.00000228","TIME_SYSTEM":"UTC","OBJECT_NAME":"STARLINK-1687","PERIAPSIS":"546.013","SEMIMAJOR_AXIS":"6925.346","APOAPSIS":"548.410","RA_OF_ASC_NODE":"131.4374","MEAN_MOTION":"15.06400722"},{"RCS_SIZE":"LARGE","TLE_LINE1":"1 46542U 20070L   22011.56699616 -.00000385  00000-0 -69350-5 0  9990","DECAY_DATE":null,"MEAN_MOTION_DDOT":"0.0000000000000","PERIOD":"95.593","NORAD_CAT_ID":"46542","REV_AT_EPOCH":"7068","EPHEMERIS_TYPE":"0","OBJECT_TYPE":"PAYLOAD","OBJECT_ID":"2020-070L","FILE":"3269987","MEAN_ANOMALY":"261.9784","ELEMENT_SET_NO":"999","CLASSIFICATION_TYPE":"U","SITE":"AFETR","CENTER_NAME":"EARTH","EPOCH":"2022-01-11T13:36:28.468224","LAUNCH_DATE":"2020-10-06","TLE_LINE2":"2 46542  53.0540 151.7391 0001973  98.1429 261.9784 15.06394020 70688","BSTAR":"-0.00000693500000","MEAN_MOTION_DOT":"-0.00000385","COUNTRY_CODE":"US","REF_FRAME":"TEME","ECCENTRICITY":"0.00019730","INCLINATION":"53.0540","ARG_OF_PERICENTER":"98.1429","MEAN_ELEMENT_THEORY":"SGP4","GP_ID":"193692356","APOAPSIS":"548.598","MEAN_MOTION":"15.06394020","RA_OF_ASC_NODE":"151.7391","SEMIMAJOR_AXIS":"6925.367","TIME_SYSTEM":"UTC","OBJECT_NAME":"STARLINK-1692","PERIAPSIS":"545.866"},{"MEAN_MOTION_DOT":"-0.00000507","COUNTRY_CODE":"US","REF_FRAME":"TEME","ECCENTRICITY":"0.00016310","INCLINATION":"53.0539","ARG_OF_PERICENTER":"79.4857","MEAN_ELEMENT_THEORY":"SGP4","GP_ID":"193692101","RA_OF_ASC_NODE":"150.6042","APOAPSIS":"548.384","MEAN_MOTION":"15.06386503","SEMIMAJOR_AXIS":"6925.390","TIME_SYSTEM":"UTC","PERIAPSIS":"546.125","OBJECT_NAME":"STARLINK-1693","RCS_SIZE":"LARGE","TLE_LINE1":"1 46543U 20070M   22011.81764509 -.00000507  00000-0 -15129-4 0  9993","MEAN_MOTION_DDOT":"0.0000000000000","DECAY_DATE":null,"PERIOD":"95.593","NORAD_CAT_ID":"46543","REV_AT_EPOCH":"7072","EPHEMERIS_TYPE":"0","OBJECT_TYPE":"PAYLOAD","OBJECT_ID":"2020-070M","FILE":"3269987","MEAN_ANOMALY":"280.6316","ELEMENT_SET_NO":"999","CLASSIFICATION_TYPE":"U","SITE":"AFETR","CENTER_NAME":"EARTH","EPOCH":"2022-01-11T19:37:24.535776","LAUNCH_DATE":"2020-10-06","TLE_LINE2":"2 46543  53.0539 150.6042 0001631  79.4857 280.6316 15.06386503 70727","BSTAR":"-0.00001512900000"}];
